[{"OBJECT_NAME":"STARLINK-5304","OBJECT_ID":"2022-177Z","EPOCH":"2026-03-09T22:00:01.999584","MEAN_MOTION":15.17797335,"ECCENTRICITY":0.00014815,"INCLINATION":42.9994,"RA_OF_ASC_NODE":131.1615,"ARG_OF_PERICENTER":254.4568,"MEAN_ANOMALY":349.7624,"EPHEMERIS_TYPE":0,"CLASSIFICATION_TYPE":"U","NORAD_CAT_ID":54843,"ELEMENT_SET_NO":999,"REV_AT_EPOCH":577,"BSTAR":0.058895764,"MEAN_MOTION_DOT":0.01315351,"MEAN_MOTION_DDOT":0},{"OBJECT_NAME":"SITRO-AIS-63","OBJECT_ID":"2025-313AY","EPOCH":"2026-03-09T22:32:46.298400","MEAN_MOTION":15.23042258,"ECCENTRICITY":0.00086521,"INCLINATION":97.4009,"RA_OF_ASC_NODE":145.3484,"ARG_OF_PERICENTER":354.3541,"MEAN_ANOMALY":5.7597,"EPHEMERIS_TYPE":0,"CLASSIFICATION_TYPE":"U","NORAD_CAT_ID":67294,"ELEMENT_SET_NO":999,"REV_AT_EPOCH":1086,"BSTAR":0.0005301085,"MEAN_MOTION_DOT":0.00012433,"MEAN_MOTION_DDOT":0}]
